{
  "norad_id": 62096,
  "name": "STARLINK-11303 [DTC]",
  "history": [
    {
      "epoch": "2026-03-28T22:37:35.455872Z",
      "apogee_km": 356.79765087781925,
      "perigee_km": 355.77940573793967,
      "latitude_deg": -4.82201490752797e-05,
      "longitude_deg": 121.0484418640493,
      "height_km": 355.61748978711597,
      "semi_major_axis_km": 6734.425528307879,
      "eccentricity": 7.56e-05,
      "inclination_deg": 42.9998,
      "raan_deg": 286.8022,
      "arg_perigee_deg": 330.3824,
      "mean_anomaly_deg": 29.7,
      "mean_motion_rev_day": 15.70912263
    },
    {
      "epoch": "2026-03-28T22:37:35.456736Z",
      "apogee_km": 356.7978529105858,
      "perigee_km": 355.77920370517313,
      "latitude_deg": -4.705169818177527e-05,
      "longitude_deg": 121.04843950017582,
      "height_km": 355.61731417673815,
      "semi_major_axis_km": 6734.425528307879,
      "eccentricity": 7.563e-05,
      "inclination_deg": 42.9998,
      "raan_deg": 286.8022,
      "arg_perigee_deg": 330.3824,
      "mean_anomaly_deg": 29.7,
      "mean_motion_rev_day": 15.70912263
    },
    {
      "epoch": "2026-03-29T23:02:32.106912Z",
      "apogee_km": 357.4587225696023,
      "perigee_km": 355.26731626328456,
      "latitude_deg": -3.0013702239822586e-06,
      "longitude_deg": 107.67782588476715,
      "height_km": 356.4864300913273,
      "semi_major_axis_km": 6734.500019416443,
      "eccentricity": 0.0001627,
      "inclination_deg": 42.9988,
      "raan_deg": 280.6703,
      "arg_perigee_deg": 251.3142,
      "mean_anomaly_deg": 108.7549,
      "mean_motion_rev_day": 15.70886199
    },
    {
      "epoch": "2026-03-29T23:02:32.107776Z",
      "apogee_km": 357.45838584460216,
      "perigee_km": 355.2676529882847,
      "latitude_deg": -6.726861217935219e-06,
      "longitude_deg": 107.67781830208496,
      "height_km": 356.48632222774273,
      "semi_major_axis_km": 6734.500019416443,
      "eccentricity": 0.00016265,
      "inclination_deg": 42.9988,
      "raan_deg": 280.6703,
      "arg_perigee_deg": 251.3142,
      "mean_anomaly_deg": 108.7549,
      "mean_motion_rev_day": 15.70886199
    }
  ]
}